IRIDIUM 36 [-]          
1 24967U 97056C   24027.53090760  .00000815  00000+0  27084-3 0  9997
2 24967  86.3959  25.7256 0002130  93.2214 266.9227 14.36601264379459
IRIDIUM 39 [-]          
1 25042U 97069D   24027.60266921  .00001077  00000+0  28627-3 0  9993
2 25042  86.3879  68.1382 0017897 189.9481 170.1371 14.47651379375637
IRIDIUM 38 [-]          
1 25043U 97069E   24027.58285392  .00000631  00000+0  20601-3 0  9993
2 25043  86.3930  86.1739 0002325  37.3954 322.7405 14.37070794373178
IRIDIUM 42 [-]          
1 25077U 97077A   24027.53813615  .00000728  00000+0  24701-3 0  9991
2 25077  86.3940  91.7480 0001896  74.0450 286.0955 14.35367215368498
IRIDIUM 45 [-]          
1 25104U 97082A   24027.21272087  .00017031  00000+0  10357-2 0  9991
2 25104  86.3758 288.6834 0173545  35.0742 326.1769 14.98515159375564
IRIDIUM 24 [-]          
1 25105U 97082B   24027.23431621  .00000932  00000+0  28409-3 0  9995
2 25105  86.3918 294.9908 0010149 320.5661  39.4798 14.40957480370180
